{
  "type": "FeatureCollection",
  "features": [
    {
      "type": "Feature",
      "properties": {
        "norad_id": 44334,
        "name": "EUTELSAT 7C",
        "group": "eutelsat",
        "lat": -0.007176778469433548,
        "lon": 17.767649835306383,
        "alt_km": 35796.792321852314,
        "timestamp": "2025-12-08T19:31:48.499251+00:00",
        "meta_object_name": "EUTELSAT 7C",
        "meta_object_id": "2019-034B",
        "meta_epoch": "2025-12-08T03:21:48.915936",
        "meta_mean_motion": 1.00270546,
        "meta_eccentricity": 0.00034146,
        "meta_inclination": 0.0738,
        "meta_ra_of_asc_node": 178.3926,
        "meta_arg_of_pericenter": 63.0985,
        "meta_mean_anomaly": 253.094,
        "meta_ephemeris_type": 0,
        "meta_classification_type": "U",
        "meta_norad_cat_id": 44334,
        "meta_element_set_no": 999,
        "meta_rev_at_epoch": 492,
        "meta_bstar": 0,
        "meta_mean_motion_dot": 5.1e-07,
        "meta_mean_motion_ddot": 0,
        "tle_line1": "1 44334U 19034B   25342.14014949  .00000051  00000+0  00000+0 0  9997",
        "tle_line2": "2 44334   0.0738 178.3926 0003414  63.0985 253.0940  1.00270546  4920"
      },
      "geometry": {
        "type": "Point",
        "coordinates": [
          17.767649835306383,
          -0.007176778469433548
        ]
      }
    },
    {
      "type": "Feature",
      "properties": {
        "norad_id": 44624,
        "name": "EUTELSAT 5 WEST B",
        "group": "eutelsat",
        "lat": 0.03809438276787459,
        "lon": 5.801013675544524,
        "alt_km": 35790.87617801458,
        "timestamp": "2025-12-08T19:31:48.499261+00:00",
        "meta_object_name": "EUTELSAT 5 WEST B",
        "meta_object_id": "2019-067A",
        "meta_epoch": "2025-12-08T06:43:52.065408",
        "meta_mean_motion": 1.00270849,
        "meta_eccentricity": 0.00035509,
        "meta_inclination": 0.0653,
        "meta_ra_of_asc_node": 339.355,
        "meta_arg_of_pericenter": 278.8019,
        "meta_mean_anomaly": 275.1006,
        "meta_ephemeris_type": 0,
        "meta_classification_type": "U",
        "meta_norad_cat_id": 44624,
        "meta_element_set_no": 999,
        "meta_rev_at_epoch": 2252,
        "meta_bstar": 0,
        "meta_mean_motion_dot": -4e-07,
        "meta_mean_motion_ddot": 0,
        "tle_line1": "1 44624U 19067A   25342.28046372 -.00000040  00000+0  00000+0 0  9994",
        "tle_line2": "2 44624   0.0653 339.3550 0003550 278.8019 275.1006  1.00270849 22525"
      },
      "geometry": {
        "type": "Point",
        "coordinates": [
          5.801013675544524,
          0.03809438276787459
        ]
      }
    },
    {
      "type": "Feature",
      "properties": {
        "norad_id": 45027,
        "name": "EUTELSAT KONNECT",
        "group": "eutelsat",
        "lat": -0.0553987252931177,
        "lon": 17.96433271910608,
        "alt_km": 35786.92803614415,
        "timestamp": "2025-12-08T19:31:48.499271+00:00",
        "meta_object_name": "EUTELSAT KONNECT",
        "meta_object_id": "2020-005B",
        "meta_epoch": "2025-12-08T01:39:13.741920",
        "meta_mean_motion": 1.00269431,
        "meta_eccentricity": 0.00018122,
        "meta_inclination": 0.0721,
        "meta_ra_of_asc_node": 97.1811,
        "meta_arg_of_pericenter": 189.2229,
        "meta_mean_anomaly": 182.6706,
        "meta_ephemeris_type": 0,
        "meta_classification_type": "U",
        "meta_norad_cat_id": 45027,
        "meta_element_set_no": 999,
        "meta_rev_at_epoch": 2242,
        "meta_bstar": 0,
        "meta_mean_motion_dot": 5.2e-07,
        "meta_mean_motion_ddot": 0,
        "tle_line1": "1 45027U 20005B   25342.06890905  .00000052  00000+0  00000+0 0  9993",
        "tle_line2": "2 45027   0.0721  97.1811 0001812 189.2229 182.6706  1.00269431 22428"
      },
      "geometry": {
        "type": "Point",
        "coordinates": [
          17.96433271910608,
          -0.0553987252931177
        ]
      }
    },
    {
      "type": "Feature",
      "properties": {
        "norad_id": 49056,
        "name": "EUTELSAT QUANTUM",
        "group": "eutelsat",
        "lat": 0.019997326015590042,
        "lon": 58.48525694419204,
        "alt_km": 35799.4755963037,
        "timestamp": "2025-12-08T19:31:48.499282+00:00",
        "meta_object_name": "EUTELSAT QUANTUM",
        "meta_object_id": "2021-069B",
        "meta_epoch": "2025-12-08T06:42:21.457728",
        "meta_mean_motion": 1.00271486,
        "meta_eccentricity": 0.00036908,
        "meta_inclination": 0.0319,
        "meta_ra_of_asc_node": 52.4153,
        "meta_arg_of_pericenter": 217.2785,
        "meta_mean_anomaly": 315.8847,
        "meta_ephemeris_type": 0,
        "meta_classification_type": "U",
        "meta_norad_cat_id": 49056,
        "meta_element_set_no": 999,
        "meta_rev_at_epoch": 1601,
        "meta_bstar": 0,
        "meta_mean_motion_dot": 1.28e-06,
        "meta_mean_motion_ddot": 0,
        "tle_line1": "1 49056U 21069B   25342.27941502  .00000128  00000+0  00000+0 0  9997",
        "tle_line2": "2 49056   0.0319  52.4153 0003690 217.2785 315.8847  1.00271486 16012"
      },
      "geometry": {
        "type": "Point",
        "coordinates": [
          58.48525694419204,
          0.019997326015590042
        ]
      }
    },
    {
      "type": "Feature",
      "properties": {
        "norad_id": 53765,
        "name": "EUTELSAT KONNECT VHTS",
        "group": "eutelsat",
        "lat": -0.04666159754163104,
        "lon": 13.490551541824251,
        "alt_km": 35794.47286921649,
        "timestamp": "2025-12-08T19:31:48.499293+00:00",
        "meta_object_name": "EUTELSAT KONNECT VHTS",
        "meta_object_id": "2022-110A",
        "meta_epoch": "2025-12-08T06:46:06.850272",
        "meta_mean_motion": 1.0027004,
        "meta_eccentricity": 0.00026325,
        "meta_inclination": 0.0619,
        "meta_ra_of_asc_node": 104.5335,
        "meta_arg_of_pericenter": 133.3909,
        "meta_mean_anomaly": 303.6046,
        "meta_ephemeris_type": 0,
        "meta_classification_type": "U",
        "meta_norad_cat_id": 53765,
        "meta_element_set_no": 999,
        "meta_rev_at_epoch": 491,
        "meta_bstar": 0,
        "meta_mean_motion_dot": 2e-07,
        "meta_mean_motion_ddot": 0,
        "tle_line1": "1 53765U 22110A   25342.28202373  .00000020  00000+0  00000+0 0  9995",
        "tle_line2": "2 53765   0.0619 104.5335 0002632 133.3909 303.6046  1.00270040  4916"
      },
      "geometry": {
        "type": "Point",
        "coordinates": [
          13.490551541824251,
          -0.04666159754163104
        ]
      }
    },
    {
      "type": "Feature",
      "properties": {
        "norad_id": 54048,
        "name": "EUTELSAT HOTBIRD 13F",
        "group": "eutelsat",
        "lat": 0.06141732227419071,
        "lon": 23.78990386955922,
        "alt_km": 35778.819352744285,
        "timestamp": "2025-12-08T19:31:48.499312+00:00",
        "meta_object_name": "EUTELSAT HOTBIRD 13F",
        "meta_object_id": "2022-134A",
        "meta_epoch": "2025-12-08T06:49:06.563136",
        "meta_mean_motion": 1.00271316,
        "meta_eccentricity": 0.00020262,
        "meta_inclination": 0.0494,
        "meta_ra_of_asc_node": 291.7852,
        "meta_arg_of_pericenter": 61.5762,
        "meta_mean_anomaly": 199.2251,
        "meta_ephemeris_type": 0,
        "meta_classification_type": "U",
        "meta_norad_cat_id": 54048,
        "meta_element_set_no": 999,
        "meta_rev_at_epoch": 1146,
        "meta_bstar": 0,
        "meta_mean_motion_dot": 9e-07,
        "meta_mean_motion_ddot": 0,
        "tle_line1": "1 54048U 22134A   25342.28410374  .00000090  00000+0  00000+0 0  9995",
        "tle_line2": "2 54048   0.0494 291.7852 0002026  61.5762 199.2251  1.00271316 11463"
      },
      "geometry": {
        "type": "Point",
        "coordinates": [
          23.78990386955922,
          0.06141732227419071
        ]
      }
    },
    {
      "type": "Feature",
      "properties": {
        "norad_id": 54225,
        "name": "EUTELSAT HOTBIRD 13G",
        "group": "eutelsat",
        "lat": 0.038013313383430974,
        "lon": 23.75113880065321,
        "alt_km": 35794.01975686128,
        "timestamp": "2025-12-08T19:31:48.499323+00:00",
        "meta_object_name": "EUTELSAT HOTBIRD 13G",
        "meta_object_id": "2022-146A",
        "meta_epoch": "2025-12-08T06:49:06.563136",
        "meta_mean_motion": 1.00270747,
        "meta_eccentricity": 0.00019071,
        "meta_inclination": 0.0495,
        "meta_ra_of_asc_node": 236.7003,
        "meta_arg_of_pericenter": 310.8753,
        "meta_mean_anomaly": 4.9908,
        "meta_ephemeris_type": 0,
        "meta_classification_type": "U",
        "meta_norad_cat_id": 54225,
        "meta_element_set_no": 999,
        "meta_rev_at_epoch": 555,
        "meta_bstar": 0,
        "meta_mean_motion_dot": 9e-07,
        "meta_mean_motion_ddot": 0,
        "tle_line1": "1 54225U 22146A   25342.28410374  .00000090  00000+0  00000+0 0  9995",
        "tle_line2": "2 54225   0.0495 236.7003 0001907 310.8753   4.9908  1.00270747  5556"
      },
      "geometry": {
        "type": "Point",
        "coordinates": [
          23.75113880065321,
          0.038013313383430974
        ]
      }
    }
  ]
}